CCSDS_OMM_VERS = 2.0
CREATION_DATE  = 
ORIGINATOR     = 

OBJECT_NAME    = SL-14 R/B
OBJECT_ID      = 1986-046B
CENTER_NAME    = EARTH
REF_FRAME      = TEME
TIME_SYSTEM    = UTC
MEAN_ELEMENT_THEORY = SGP/SGP4

EPOCH          = 2026-02-21T04:05:35.183040
MEAN_MOTION    = 14.85573048
ECCENTRICITY   = .00215737
INCLINATION    = 82.4795
RA_OF_ASC_NODE = 95.7945
ARG_OF_PERICENTER = 283.3704
MEAN_ANOMALY   = 76.5107

EPHEMERIS_TYPE = 0
CLASSIFICATION_TYPE = U
NORAD_CAT_ID   = 16792
ELEMENT_SET_NO = 999
REV_AT_EPOCH   = 12395
BSTAR          = .42315712E-4
MEAN_MOTION_DOT = .391E-5
MEAN_MOTION_DDOT = 0

CCSDS_OMM_VERS = 2.0
CREATION_DATE  = 
ORIGINATOR     = 

OBJECT_NAME    = SL-14 R/B
OBJECT_ID      = 1986-055B
CENTER_NAME    = EARTH
REF_FRAME      = TEME
TIME_SYSTEM    = UTC
MEAN_ELEMENT_THEORY = SGP/SGP4

EPOCH          = 2026-02-21T05:28:38.663328
MEAN_MOTION    = 14.85625282
ECCENTRICITY   = .00196
INCLINATION    = 82.5229
RA_OF_ASC_NODE = 142.1435
ARG_OF_PERICENTER = 30.7871
MEAN_ANOMALY   = 359.3371

EPHEMERIS_TYPE = 0
CLASSIFICATION_TYPE = U
NORAD_CAT_ID   = 16882
ELEMENT_SET_NO = 999
REV_AT_EPOCH   = 11692
BSTAR          = .50730886E-4
MEAN_MOTION_DOT = .465E-5
MEAN_MOTION_DDOT = 0

CCSDS_OMM_VERS = 2.0
CREATION_DATE  = 
ORIGINATOR     = 

OBJECT_NAME    = AJISAI (EGS)
OBJECT_ID      = 1986-061A
CENTER_NAME    = EARTH
REF_FRAME      = TEME
TIME_SYSTEM    = UTC
MEAN_ELEMENT_THEORY = SGP/SGP4

EPOCH          = 2026-02-21T06:14:28.561920
MEAN_MOTION    = 12.44515383
ECCENTRICITY   = .00112335
INCLINATION    = 50.0085
RA_OF_ASC_NODE = 143.8694
ARG_OF_PERICENTER = 244.6537
MEAN_ANOMALY   = 218.2210

EPHEMERIS_TYPE = 0
CLASSIFICATION_TYPE = U
NORAD_CAT_ID   = 16908
ELEMENT_SET_NO = 999
REV_AT_EPOCH   = 46595
BSTAR          = .14014555E-3
MEAN_MOTION_DOT = -.77E-6
MEAN_MOTION_DDOT = 0

CCSDS_OMM_VERS = 2.0
CREATION_DATE  = 
ORIGINATOR     = 

OBJECT_NAME    = COSMOS 1812
OBJECT_ID      = 1987-003A
CENTER_NAME    = EARTH
REF_FRAME      = TEME
TIME_SYSTEM    = UTC
MEAN_ELEMENT_THEORY = SGP/SGP4

EPOCH          = 2026-02-21T06:03:50.392512
MEAN_MOTION    = 16.04477096
ECCENTRICITY   = .00043612
INCLINATION    = 82.4738
RA_OF_ASC_NODE = 214.4099
ARG_OF_PERICENTER = 295.0153
MEAN_ANOMALY   = 65.0674

EPHEMERIS_TYPE = 0
CLASSIFICATION_TYPE = U
NORAD_CAT_ID   = 17295
ELEMENT_SET_NO = 999
REV_AT_EPOCH   = 14183
BSTAR          = .81528999E-3
MEAN_MOTION_DOT = .536043E-2
MEAN_MOTION_DDOT = .13320958E-3

CCSDS_OMM_VERS = 2.0
CREATION_DATE  = 
ORIGINATOR     = 

OBJECT_NAME    = SL-14 R/B
OBJECT_ID      = 1987-024B
CENTER_NAME    = EARTH
REF_FRAME      = TEME
TIME_SYSTEM    = UTC
MEAN_ELEMENT_THEORY = SGP/SGP4

EPOCH          = 2026-02-21T03:25:24.762144
MEAN_MOTION    = 14.86115329
ECCENTRICITY   = .00171543
INCLINATION    = 82.5270
RA_OF_ASC_NODE = 108.3182
ARG_OF_PERICENTER = 319.2822
MEAN_ANOMALY   = 40.7111

EPHEMERIS_TYPE = 0
CLASSIFICATION_TYPE = U
NORAD_CAT_ID   = 17567
ELEMENT_SET_NO = 999
REV_AT_EPOCH   = 8567
BSTAR          = .42872056E-4
MEAN_MOTION_DOT = .401E-5
MEAN_MOTION_DDOT = 0

CCSDS_OMM_VERS = 2.0
CREATION_DATE  = 
ORIGINATOR     = 

OBJECT_NAME    = COSMOS 1833
OBJECT_ID      = 1987-027A
CENTER_NAME    = EARTH
REF_FRAME      = TEME
TIME_SYSTEM    = UTC
MEAN_ELEMENT_THEORY = SGP/SGP4

EPOCH          = 2026-02-21T05:23:36.858624
MEAN_MOTION    = 14.13057239
ECCENTRICITY   = .00248261
INCLINATION    = 70.9233
RA_OF_ASC_NODE = 0.6202
ARG_OF_PERICENTER = 237.0702
MEAN_ANOMALY   = 122.8032

EPHEMERIS_TYPE = 0
CLASSIFICATION_TYPE = U
NORAD_CAT_ID   = 17589
ELEMENT_SET_NO = 999
REV_AT_EPOCH   = 799
BSTAR          = -.12436254E-4
MEAN_MOTION_DOT = -.71E-6
MEAN_MOTION_DDOT = 0

CCSDS_OMM_VERS = 2.0
CREATION_DATE  = 
ORIGINATOR     = 

OBJECT_NAME    = SL-16 R/B
OBJECT_ID      = 1987-027B
CENTER_NAME    = EARTH
REF_FRAME      = TEME
TIME_SYSTEM    = UTC
MEAN_ELEMENT_THEORY = SGP/SGP4

EPOCH          = 2026-02-21T04:12:45.193248
MEAN_MOTION    = 14.17165534
ECCENTRICITY   = .00042998
INCLINATION    = 71.0038
RA_OF_ASC_NODE = 311.2954
ARG_OF_PERICENTER = 173.1382
MEAN_ANOMALY   = 186.9802

EPHEMERIS_TYPE = 0
CLASSIFICATION_TYPE = U
NORAD_CAT_ID   = 17590
ELEMENT_SET_NO = 999
REV_AT_EPOCH   = 1300
BSTAR          = .14798737E-3
MEAN_MOTION_DOT = .251E-5
MEAN_MOTION_DDOT = 0

CCSDS_OMM_VERS = 2.0
CREATION_DATE  = 
ORIGINATOR     = 

OBJECT_NAME    = SL-14 R/B
OBJECT_ID      = 1987-038B
CENTER_NAME    = EARTH
REF_FRAME      = TEME
TIME_SYSTEM    = UTC
MEAN_ELEMENT_THEORY = SGP/SGP4

EPOCH          = 2026-02-21T04:42:54.144000
MEAN_MOTION    = 14.85352882
ECCENTRICITY   = .00182369
INCLINATION    = 82.5031
RA_OF_ASC_NODE = 312.3431
ARG_OF_PERICENTER = 215.6864
MEAN_ANOMALY   = 144.3134

EPHEMERIS_TYPE = 0
CLASSIFICATION_TYPE = U
NORAD_CAT_ID   = 17912
ELEMENT_SET_NO = 999
REV_AT_EPOCH   = 7678
BSTAR          = .46742355E-4
MEAN_MOTION_DOT = .427E-5
MEAN_MOTION_DDOT = 0

CCSDS_OMM_VERS = 2.0
CREATION_DATE  = 
ORIGINATOR     = 

OBJECT_NAME    = COSMOS 1844
OBJECT_ID      = 1987-041A
CENTER_NAME    = EARTH
REF_FRAME      = TEME
TIME_SYSTEM    = UTC
MEAN_ELEMENT_THEORY = SGP/SGP4

EPOCH          = 2026-02-21T06:39:24.842304
MEAN_MOTION    = 14.14551261
ECCENTRICITY   = .0029177
INCLINATION    = 70.8984
RA_OF_ASC_NODE = 68.7940
ARG_OF_PERICENTER = 43.7454
MEAN_ANOMALY   = 316.5972

EPHEMERIS_TYPE = 0
CLASSIFICATION_TYPE = U
NORAD_CAT_ID   = 17973
ELEMENT_SET_NO = 999
REV_AT_EPOCH   = 126
BSTAR          = .11770473E-3
MEAN_MOTION_DOT = .179E-5
MEAN_MOTION_DDOT = 0

CCSDS_OMM_VERS = 2.0
CREATION_DATE  = 
ORIGINATOR     = 

OBJECT_NAME    = SL-14 R/B
OBJECT_ID      = 1987-055B
CENTER_NAME    = EARTH
REF_FRAME      = TEME
TIME_SYSTEM    = UTC
MEAN_ELEMENT_THEORY = SGP/SGP4

EPOCH          = 2026-02-21T05:50:51.988992
MEAN_MOTION    = 14.85607047
ECCENTRICITY   = .00222115
INCLINATION    = 82.5016
RA_OF_ASC_NODE = 4.5271
ARG_OF_PERICENTER = 69.3557
MEAN_ANOMALY   = 291.0038

EPHEMERIS_TYPE = 0
CLASSIFICATION_TYPE = U
NORAD_CAT_ID   = 18153
ELEMENT_SET_NO = 999
REV_AT_EPOCH   = 6749
BSTAR          = .58218257E-4
MEAN_MOTION_DOT = .53E-5
MEAN_MOTION_DDOT = 0

CCSDS_OMM_VERS = 2.0
CREATION_DATE  = 
ORIGINATOR     = 

OBJECT_NAME    = COSMOS 1867
OBJECT_ID      = 1987-060A
CENTER_NAME    = EARTH
REF_FRAME      = TEME
TIME_SYSTEM    = UTC
MEAN_ELEMENT_THEORY = SGP/SGP4

EPOCH          = 2026-02-21T05:36:03.486816
MEAN_MOTION    = 14.31500200
ECCENTRICITY   = .00142638
INCLINATION    = 65.0126
RA_OF_ASC_NODE = 352.7887
ARG_OF_PERICENTER = 277.7452
MEAN_ANOMALY   = 82.2013

EPHEMERIS_TYPE = 0
CLASSIFICATION_TYPE = U
NORAD_CAT_ID   = 18187
ELEMENT_SET_NO = 999
REV_AT_EPOCH   = 1758
BSTAR          = .25774814E-4
MEAN_MOTION_DOT = -.32E-6
MEAN_MOTION_DDOT = 0

CCSDS_OMM_VERS = 2.0
CREATION_DATE  = 
ORIGINATOR     = 

OBJECT_NAME    = SL-14 R/B
OBJECT_ID      = 1988-001B
CENTER_NAME    = EARTH
REF_FRAME      = TEME
TIME_SYSTEM    = UTC
MEAN_ELEMENT_THEORY = SGP/SGP4

EPOCH          = 2026-02-20T23:14:26.782656
MEAN_MOTION    = 14.85505188
ECCENTRICITY   = .00167282
INCLINATION    = 82.5120
RA_OF_ASC_NODE = 211.0854
ARG_OF_PERICENTER = 295.8473
MEAN_ANOMALY   = 64.1018

EPHEMERIS_TYPE = 0
CLASSIFICATION_TYPE = U
NORAD_CAT_ID   = 18749
ELEMENT_SET_NO = 999
REV_AT_EPOCH   = 3954
BSTAR          = .5380208E-4
MEAN_MOTION_DOT = .489E-5
MEAN_MOTION_DDOT = 0

