SL-14 R/B               
1 16792U 86046B   26052.17054610  .00000391  00000+0  42316-4 0  9990
2 16792  82.4795  95.7945 0021573 283.3704  76.5107 14.85573048123957
SL-14 R/B               
1 16882U 86055B   26052.22822527  .00000465  00000+0  50731-4 0  9998
2 16882  82.5229 142.1435 0019600  30.7871 359.3371 14.85625282116920
AJISAI (EGS)            
1 16908U 86061A   26052.26005280 -.00000077  00000+0  14015-3 0  9991
2 16908  50.0085 143.8694 0011233 244.6537 218.2210 12.44515383465951
COSMOS 1812             
1 17295U 87003A   26052.25266658  .00536043  13321-3  81529-3 0  9999
2 17295  82.4738 214.4099 0004361 295.0153  65.0674 16.04477096141835
SL-14 R/B               
1 17567U 87024B   26052.14264771  .00000401  00000+0  42872-4 0  9995
2 17567  82.5270 108.3182 0017154 319.2822  40.7111 14.86115329 85670
COSMOS 1833             
1 17589U 87027A   26052.22473216 -.00000071  00000+0 -12436-4 0  9995
2 17589  70.9233   0.6202 0024826 237.0702 122.8032 14.13057239  7997
SL-16 R/B               
1 17590U 87027B   26052.17552307  .00000251  00000+0  14799-3 0  9991
2 17590  71.0038 311.2954 0004299 173.1382 186.9802 14.17165534 13002
SL-14 R/B               
1 17912U 87038B   26052.19646000  .00000427  00000+0  46742-4 0  9996
2 17912  82.5031 312.3431 0018236 215.6864 144.3134 14.85352882 76784
COSMOS 1844             
1 17973U 87041A   26052.27737086  .00000179  00000+0  11770-3 0  9997
2 17973  70.8984  68.7940 0029177  43.7454 316.5972 14.14551261  1264
SL-14 R/B               
1 18153U 87055B   26052.24365728  .00000530  00000+0  58218-4 0  9990
2 18153  82.5016   4.5271 0022211  69.3557 291.0038 14.85607047 67495
COSMOS 1867             
1 18187U 87060A   26052.23337369 -.00000032  00000+0  25775-4 0  9992
2 18187  65.0126 352.7887 0014263 277.7452  82.2013 14.31500200 17580
SL-14 R/B               
1 18749U 88001B   26051.96836554  .00000489  00000+0  53802-4 0  9998
2 18749  82.5120 211.0854 0016728 295.8473  64.1018 14.85505188 39548
